#dP2024  7 11  0  0  0.00000000      96 __u+U IGS20 FIT  IAC
## 2322 345600.00000000   900.00000000 60502 0.0000000000000
+   54   G02G03G04G05G06G07G08G09G10G11G12G13G14G15G16G17G18
+        G19G20G21G22G23G24G25G26G27G28G29G30G31G32R01R02R03
+        R04R05R07R08R09R11R12R13R14R15R16R17R18R19R20R21R22
+        R24R25R26  0  0  0  0  0  0  0  0  0  0  0  0  0  0
+          0  0  0  0  0  0  0  0  0  0  0  0  0  0  0  0  0
++         6  7  6  7  6  7  8  7  7  6  7  4  6  7  7  5  6
++         7  7  6  7  6  6  7  6  8  7  7  6  6  6  7  6  6
++         7  7  7  6  7  5  7  8  8  7  7  6  6  8  8  6  5
++         7  5  6  0  0  0  0  0  0  0  0  0  0  0  0  0  0
++         0  0  0  0  0  0  0  0  0  0  0  0  0  0  0  0  0
%c M  cc GPS ccc cccc cccc cccc cccc ccccc ccccc ccccc ccccc
%c cc cc ccc ccc cccc cccc cccc cccc ccccc ccccc ccccc ccccc
%f  0.0000000  0.000000000  0.00000000000  0.000000000000000
%f  0.0000000  0.000000000  0.00000000000  0.000000000000000
%i    0    0    0    0      0      0      0      0         0
%i    0    0    0    0      0      0      0      0         0
/* INFORMATION & ANALYSIS CENTER (IAC)      ULTRA-RAPID DATA
/* S/V CLOCKS ARE ALIGNED TO GNSS TIME                      
/* G:C1WC2W R:C1PC2P E:C1XC5X C:C2IC6I J:C1CC2S             
/* PCV:IGS20_2317 OL/AL:FES2004  NONE     YN ORB:CoN CLK:CoN
*  2024 07 11  9 30  0.00000000
PG02  14049.234003 -16726.399490  15365.146403   -401.205500
PG03  20383.861326 -12765.557761 -11298.224384    453.145857
PG04  10852.662012 -10511.225074 -21826.891447    401.459454
PG05 -25838.851296   4610.532165  -4526.238227   -179.356728
PG06  -7041.616152 -17974.112627 -18132.266969    168.216438
PG07   5006.235077 -25696.593395   3091.244852    -72.335500
PG08  18813.047977   -453.830085  18794.628161    269.452654
PG09   -769.289170 -19012.950632 -18592.681654    268.755565
PG10  10543.865547  12049.012842  21460.888652    -63.341540
PG11 -14475.728913  -4279.277835 -21829.606462   -702.743035
PG12 -22638.882913  10584.302707  -9200.363201   -521.347447
PG13 -19633.542067  -9407.879946  15162.567233    663.811000
PG14  -6238.803645 -14464.924709  21440.549496    446.156811
PG15 -18554.664668   2915.864404  18343.832151    179.842530
PG16  25801.561680   1112.930652  -7461.987695   -239.845048
PG17 -11735.070196 -22391.142938   8287.752768    679.700083
PG18  -5443.970307  25667.714081   3321.647094   -635.289924
PG19 -17249.747888 -20458.552970  -1349.669770    508.841360
PG20 -22559.666393   -557.789800 -13820.385098    372.883866
PG21  15353.106694 -10817.200409  18773.928186    109.672340
PG22 -14014.972664 -11672.351041  19623.445531    -38.219064
PG23  -3052.454022  15652.416556  21223.736657    271.127638
PG24 -14469.897494  15232.399658  15577.062230   -482.605652
PG25 -13486.146456  15952.448537 -16589.437378    498.395545
PG26  18638.687219   7560.768138 -17674.855512    121.960766
PG27  21605.885047  10436.927162  11545.515616    -30.835361
PG28   6733.985769  19906.921744 -16251.983846   -326.516683
PG29  -3743.740538  16970.501561 -20096.690491   -590.102665
PG30  -2890.174687 -23259.224447  12386.488918   -359.718503
PG31  13102.334138   9062.595035 -21420.132437   -226.847324
PG32  14742.163378  21313.439889   6494.751951   -612.726128
PR01 -10289.216036 -13976.134068 -18702.032899     91.042592
PR02 -21832.027309 -12418.178836  -4213.518808    -23.654064
PR03 -21749.959532  -3300.748906  12906.980383    103.594660
PR04  -9756.096543   6922.256613  22554.743303    244.841903
PR05   7374.674829  13784.472073  20172.424489    134.384941
PR07  21521.324521   2992.679874 -13363.065679     86.425976
PR08   9550.884840  -7187.262972 -22479.984242     -5.799012
PR09  12378.340732   4204.174265 -21864.213251    197.065111
PR11  18940.232975 -16474.091315   4487.396372     18.557333
PR12   4324.611187 -15056.149209  20164.761929     42.320478
PR13 -10069.520573  -6099.176982  22621.680302    -49.191967
PR14 -21187.136180   8781.388947  11208.859504     26.694057
PR15 -18268.877189  16741.691234  -6050.413847     77.991276
PR16  -4588.157613  15058.399031 -20068.252309     27.267294
PR17 -10436.057199   2335.091559 -23153.524892    103.613578
PR18  -6023.282403  18567.677447 -16435.065847    151.400910
PR19   -213.329165  25314.479654  -3091.952222   -283.468274
PR20   8279.980654  17325.025981  16813.255101   -115.923771
PR21  10410.490551  -1866.660118  23207.458420   -116.579577
PR22   6339.564187 -19265.390853  15488.414288     90.226567
PR24  -9531.581557 -16445.988402 -17011.180061    -63.307875
PR25  10795.603687  -2373.921024  22991.606002    -95.855369
PR26  10752.891736  -6516.870406 -22170.459414      3.740326
*  2024 07 11  9 45  0.00000000
PG02  13925.230493 -14923.280778  17301.209482   -401.199045
PG03  21511.348978 -12907.218144  -8702.283001    453.160683
PG04  12580.334783  -8715.240033 -21702.268825    401.466559
PG05 -25287.388061   4204.808346  -7293.270705   -179.358379
PG06  -6423.450320 -19857.584336 -16301.843449    168.196172
PG07   5350.071855 -25752.442834    237.989235    -72.327945
PG08  20262.670458   1030.902761  17246.967943    269.467520
PG09    925.606588 -17621.804724 -19919.627677    268.769105
PG10   8209.580168  12739.331709  22051.050556    -63.350133
PG11 -13752.394072  -6666.174798 -21703.878810   -702.749335
PG12 -23536.052433  10536.858699  -6532.004602   -521.350244
PG13 -20508.439359 -10795.450229  12972.410829    663.813191
PG14  -3863.775905 -15089.610196  21549.947638    446.164876
PG15 -20168.901054   1555.130603  16799.427401    179.846545
PG16  24907.134052   1485.765425 -10056.948446   -239.835357
PG17 -10870.357543 -21764.069777  10879.302831    679.693360
PG18  -5723.468912  25814.915863    437.122089   -635.293619
PG19 -17076.298259 -20569.586636   1495.788129    508.846236
PG20 -21111.232367  -1503.354544 -15888.379891    372.883788
PG21  15177.948722  -8643.051603  20119.042636    109.669851
PG22 -11839.325365 -12197.065557  20755.327299    -38.222959
PG23  -5332.323545  16296.178077  20247.655681    271.135705
PG24 -14419.215103  13240.157922  17337.579859   -482.607141
PG25 -15212.651534  16267.446956 -14610.605017    498.395918
PG26  16752.507111   8435.379756 -19088.619647    121.954632
PG27  22341.421148  11411.371995   9051.107392    -30.836202
PG28   6190.980719  21571.647359 -14214.636730   -326.531058
PG29  -5365.420152  15272.937024 -21080.470189   -590.100732
PG30  -2297.146455 -24423.752441   9985.903347   -359.712644
PG31  12400.104344  11331.862675 -20704.837597   -226.846729
PG32  13965.906682  20876.101772   9153.585122   -612.724365
PR01  -8066.761347 -13036.507846 -20393.438103     91.043292
PR02 -21234.518252 -11984.605161  -7338.621233    -23.654460
PR03 -23109.961137  -3718.137797  10114.110139    103.594972
PR04 -12275.590574   5897.237739  21592.899274    244.843660
PR05   5044.443200  12688.094605  21560.150195    134.386096
PR07  22945.384053   3436.498594 -10616.399810     86.427485
PR08  12087.387214  -6174.189455 -21545.956856     -5.799545
PR09  10241.214756   5929.151255 -22565.180195    197.067141
PR11  19132.703808 -16805.043192   1300.882181     18.555515
PR12   6159.269730 -16564.462986  18428.718926     42.320417
PR13  -7853.929692  -7833.440236  22962.668486    -49.192206
PR14 -19912.191351   7905.455598  13881.641981     26.694305
PR15 -18632.504490  17180.593456  -2910.233811     77.991056
PR16  -6405.106240  16581.860186 -18295.930774     27.267579
PR17 -10787.821881   -500.883461 -23108.483464    103.616693
PR18  -6124.344557  16403.312981 -18558.194810    151.402535
PR19    -44.272877  24721.080135  -6271.773719   -283.469240
PR20   8593.583464  19234.594405  14410.231307   -115.924561
PR21  10738.827263    977.017544  23109.439899   -116.582689
PR22   6409.579898 -17219.218970  17713.498050     90.220833
PR24  -9881.192646 -18374.934685 -14681.437486    -63.309925
PR25  11029.344956    453.586210  22996.661924    -95.857172
PR26  13245.532906  -5549.286613 -21055.735161      3.742028
EOF
